STARLINK-35336          
1 66006U 25232B   25300.25002315 -.01496124  00000+0 -81101-2 0  9991
2 66006  53.1552   8.5444 0001126  75.7791  78.8365 15.82093257  2081
STARLINK-35196          
1 66007U 25232C   25300.25002315 -.01506296  00000+0 -81724-2 0  9995
2 66007  53.1554   8.5403 0001181  77.4530  79.2829 15.82093390  2088
STARLINK-35236          
1 66008U 25232D   25300.25002315 -.01512801  00000+0 -82232-2 0  9990
2 66008  53.1550   8.5344 0001020  83.0388  76.0847 15.82067644  2083
STARLINK-35276          
1 66009U 25232E   25300.25002315 -.01523864  00000+0 -83069-2 0  9991
2 66009  53.1550   8.5295 0000934  97.3122  64.3675 15.82029602  2076
STARLINK-35297          
1 66010U 25232F   25300.25002315 -.01532310  00000+0 -83633-2 0  9996
2 66010  53.1552   8.5249 0001049  79.5065  84.3952 15.82018249  2081
STARLINK-35256          
1 66011U 25232G   25300.25002315 -.01564043  00000+0 -85815-2 0  9999
2 66011  53.1552   8.5065 0001237  74.8494  98.0039 15.81965972  2082
STARLINK-35293          
1 66012U 25232H   25300.25002315 -.01544833  00000+0 -84489-2 0  9991
2 66012  53.1550   8.5200 0001028  81.0252  85.2197 15.81999260  2082
STARLINK-35307          
1 66013U 25232J   25300.25002315 -.01552911  00000+0 -85052-2 0  9995
2 66013  53.1554   8.5154 0001179  76.9973  91.5163 15.81982942  2010
STARLINK-35395          
1 66014U 25232K   25300.25002315 -.01554890  00000+0 -85168-2 0  9992
2 66014  53.1551   8.5109 0001000  82.3015  88.2257 15.81986916  2077
STARLINK-34622          
1 66015U 25232L   25300.25002315 -.01592804  00000+0 -87905-2 0  9991
2 66015  53.1552   8.4916 0001149  82.6282  97.2639 15.81898938  1975
STARLINK-35243          
1 66016U 25232M   25300.25002315 -.01585417  00000+0 -87318-2 0  9992
2 66016  53.1550   8.4965 0001102  73.2657 104.2209 15.81928606  2080
STARLINK-35398          
1 66017U 25232N   25300.25002315 -.01613971  00000+0 -89437-2 0  9994
2 66017  53.1552   8.4816 0000985  83.4792 101.0980 15.81856045  2009
