CCSDS_OMM_VERS = 2.0
CREATION_DATE  = 
ORIGINATOR     = 

OBJECT_NAME    = STARLINK-35336
OBJECT_ID      = 2025-232B
CENTER_NAME    = EARTH
REF_FRAME      = TEME
TIME_SYSTEM    = UTC
MEAN_ELEMENT_THEORY = SGP/SGP4

EPOCH          = 2025-10-27T06:00:02.000160
MEAN_MOTION    = 15.82093257
ECCENTRICITY   = .0001126
INCLINATION    = 53.1552
RA_OF_ASC_NODE = 8.5444
ARG_OF_PERICENTER = 75.7791
MEAN_ANOMALY   = 78.8365

EPHEMERIS_TYPE = 0
CLASSIFICATION_TYPE = U
NORAD_CAT_ID   = 66006
ELEMENT_SET_NO = 999
REV_AT_EPOCH   = 208
BSTAR          = -.811014E-2
MEAN_MOTION_DOT = -.1496124E-1
MEAN_MOTION_DDOT = 0

CCSDS_OMM_VERS = 2.0
CREATION_DATE  = 
ORIGINATOR     = 

OBJECT_NAME    = STARLINK-35196
OBJECT_ID      = 2025-232C
CENTER_NAME    = EARTH
REF_FRAME      = TEME
TIME_SYSTEM    = UTC
MEAN_ELEMENT_THEORY = SGP/SGP4

EPOCH          = 2025-10-27T06:00:02.000160
MEAN_MOTION    = 15.82093390
ECCENTRICITY   = .00011815
INCLINATION    = 53.1554
RA_OF_ASC_NODE = 8.5403
ARG_OF_PERICENTER = 77.4530
MEAN_ANOMALY   = 79.2829

EPHEMERIS_TYPE = 0
CLASSIFICATION_TYPE = U
NORAD_CAT_ID   = 66007
ELEMENT_SET_NO = 999
REV_AT_EPOCH   = 208
BSTAR          = -.81724494E-2
MEAN_MOTION_DOT = -.1506296E-1
MEAN_MOTION_DDOT = 0

CCSDS_OMM_VERS = 2.0
CREATION_DATE  = 
ORIGINATOR     = 

OBJECT_NAME    = STARLINK-35236
OBJECT_ID      = 2025-232D
CENTER_NAME    = EARTH
REF_FRAME      = TEME
TIME_SYSTEM    = UTC
MEAN_ELEMENT_THEORY = SGP/SGP4

EPOCH          = 2025-10-27T06:00:02.000160
MEAN_MOTION    = 15.82067644
ECCENTRICITY   = .00010203
INCLINATION    = 53.1550
RA_OF_ASC_NODE = 8.5344
ARG_OF_PERICENTER = 83.0388
MEAN_ANOMALY   = 76.0847

EPHEMERIS_TYPE = 0
CLASSIFICATION_TYPE = U
NORAD_CAT_ID   = 66008
ELEMENT_SET_NO = 999
REV_AT_EPOCH   = 208
BSTAR          = -.82232362E-2
MEAN_MOTION_DOT = -.1512801E-1
MEAN_MOTION_DDOT = 0

CCSDS_OMM_VERS = 2.0
CREATION_DATE  = 
ORIGINATOR     = 

OBJECT_NAME    = STARLINK-35276
OBJECT_ID      = 2025-232E
CENTER_NAME    = EARTH
REF_FRAME      = TEME
TIME_SYSTEM    = UTC
MEAN_ELEMENT_THEORY = SGP/SGP4

EPOCH          = 2025-10-27T06:00:02.000160
MEAN_MOTION    = 15.82029602
ECCENTRICITY   = .00009348
INCLINATION    = 53.1550
RA_OF_ASC_NODE = 8.5295
ARG_OF_PERICENTER = 97.3122
MEAN_ANOMALY   = 64.3675

EPHEMERIS_TYPE = 0
CLASSIFICATION_TYPE = U
NORAD_CAT_ID   = 66009
ELEMENT_SET_NO = 999
REV_AT_EPOCH   = 207
BSTAR          = -.83069269E-2
MEAN_MOTION_DOT = -.1523864E-1
MEAN_MOTION_DDOT = 0

CCSDS_OMM_VERS = 2.0
CREATION_DATE  = 
ORIGINATOR     = 

OBJECT_NAME    = STARLINK-35297
OBJECT_ID      = 2025-232F
CENTER_NAME    = EARTH
REF_FRAME      = TEME
TIME_SYSTEM    = UTC
MEAN_ELEMENT_THEORY = SGP/SGP4

EPOCH          = 2025-10-27T06:00:02.000160
MEAN_MOTION    = 15.82018249
ECCENTRICITY   = .00010491
INCLINATION    = 53.1552
RA_OF_ASC_NODE = 8.5249
ARG_OF_PERICENTER = 79.5065
MEAN_ANOMALY   = 84.3952

EPHEMERIS_TYPE = 0
CLASSIFICATION_TYPE = U
NORAD_CAT_ID   = 66010
ELEMENT_SET_NO = 999
REV_AT_EPOCH   = 208
BSTAR          = -.83633346E-2
MEAN_MOTION_DOT = -.153231E-1
MEAN_MOTION_DDOT = 0

CCSDS_OMM_VERS = 2.0
CREATION_DATE  = 
ORIGINATOR     = 

OBJECT_NAME    = STARLINK-35256
OBJECT_ID      = 2025-232G
CENTER_NAME    = EARTH
REF_FRAME      = TEME
TIME_SYSTEM    = UTC
MEAN_ELEMENT_THEORY = SGP/SGP4

EPOCH          = 2025-10-27T06:00:02.000160
MEAN_MOTION    = 15.81965972
ECCENTRICITY   = .00012372
INCLINATION    = 53.1552
RA_OF_ASC_NODE = 8.5065
ARG_OF_PERICENTER = 74.8494
MEAN_ANOMALY   = 98.0039

EPHEMERIS_TYPE = 0
CLASSIFICATION_TYPE = U
NORAD_CAT_ID   = 66011
ELEMENT_SET_NO = 999
REV_AT_EPOCH   = 208
BSTAR          = -.85814592E-2
MEAN_MOTION_DOT = -.1564043E-1
MEAN_MOTION_DDOT = 0

CCSDS_OMM_VERS = 2.0
CREATION_DATE  = 
ORIGINATOR     = 

OBJECT_NAME    = STARLINK-35293
OBJECT_ID      = 2025-232H
CENTER_NAME    = EARTH
REF_FRAME      = TEME
TIME_SYSTEM    = UTC
MEAN_ELEMENT_THEORY = SGP/SGP4

EPOCH          = 2025-10-27T06:00:02.000160
MEAN_MOTION    = 15.81999260
ECCENTRICITY   = .00010283
INCLINATION    = 53.1550
RA_OF_ASC_NODE = 8.5200
ARG_OF_PERICENTER = 81.0252
MEAN_ANOMALY   = 85.2197

EPHEMERIS_TYPE = 0
CLASSIFICATION_TYPE = U
NORAD_CAT_ID   = 66012
ELEMENT_SET_NO = 999
REV_AT_EPOCH   = 208
BSTAR          = -.84489298E-2
MEAN_MOTION_DOT = -.1544833E-1
MEAN_MOTION_DDOT = 0

CCSDS_OMM_VERS = 2.0
CREATION_DATE  = 
ORIGINATOR     = 

OBJECT_NAME    = STARLINK-35307
OBJECT_ID      = 2025-232J
CENTER_NAME    = EARTH
REF_FRAME      = TEME
TIME_SYSTEM    = UTC
MEAN_ELEMENT_THEORY = SGP/SGP4

EPOCH          = 2025-10-27T06:00:02.000160
MEAN_MOTION    = 15.81982942
ECCENTRICITY   = .00011796
INCLINATION    = 53.1554
RA_OF_ASC_NODE = 8.5154
ARG_OF_PERICENTER = 76.9973
MEAN_ANOMALY   = 91.5163

EPHEMERIS_TYPE = 0
CLASSIFICATION_TYPE = U
NORAD_CAT_ID   = 66013
ELEMENT_SET_NO = 999
REV_AT_EPOCH   = 201
BSTAR          = -.85052044E-2
MEAN_MOTION_DOT = -.1552911E-1
MEAN_MOTION_DDOT = 0

CCSDS_OMM_VERS = 2.0
CREATION_DATE  = 
ORIGINATOR     = 

OBJECT_NAME    = STARLINK-35395
OBJECT_ID      = 2025-232K
CENTER_NAME    = EARTH
REF_FRAME      = TEME
TIME_SYSTEM    = UTC
MEAN_ELEMENT_THEORY = SGP/SGP4

EPOCH          = 2025-10-27T06:00:02.000160
MEAN_MOTION    = 15.81986916
ECCENTRICITY   = .00010006
INCLINATION    = 53.1551
RA_OF_ASC_NODE = 8.5109
ARG_OF_PERICENTER = 82.3015
MEAN_ANOMALY   = 88.2257

EPHEMERIS_TYPE = 0
CLASSIFICATION_TYPE = U
NORAD_CAT_ID   = 66014
ELEMENT_SET_NO = 999
REV_AT_EPOCH   = 207
BSTAR          = -.85167998E-2
MEAN_MOTION_DOT = -.155489E-1
MEAN_MOTION_DDOT = 0

CCSDS_OMM_VERS = 2.0
CREATION_DATE  = 
ORIGINATOR     = 

OBJECT_NAME    = STARLINK-34622
OBJECT_ID      = 2025-232L
CENTER_NAME    = EARTH
REF_FRAME      = TEME
TIME_SYSTEM    = UTC
MEAN_ELEMENT_THEORY = SGP/SGP4

EPOCH          = 2025-10-27T06:00:02.000160
MEAN_MOTION    = 15.81898938
ECCENTRICITY   = .00011499
INCLINATION    = 53.1552
RA_OF_ASC_NODE = 8.4916
ARG_OF_PERICENTER = 82.6282
MEAN_ANOMALY   = 97.2639

EPHEMERIS_TYPE = 0
CLASSIFICATION_TYPE = U
NORAD_CAT_ID   = 66015
ELEMENT_SET_NO = 999
REV_AT_EPOCH   = 197
BSTAR          = -.87905128E-2
MEAN_MOTION_DOT = -.1592804E-1
MEAN_MOTION_DDOT = 0

CCSDS_OMM_VERS = 2.0
CREATION_DATE  = 
ORIGINATOR     = 

OBJECT_NAME    = STARLINK-35243
OBJECT_ID      = 2025-232M
CENTER_NAME    = EARTH
REF_FRAME      = TEME
TIME_SYSTEM    = UTC
MEAN_ELEMENT_THEORY = SGP/SGP4

EPOCH          = 2025-10-27T06:00:02.000160
MEAN_MOTION    = 15.81928606
ECCENTRICITY   = .00011023
INCLINATION    = 53.1550
RA_OF_ASC_NODE = 8.4965
ARG_OF_PERICENTER = 73.2657
MEAN_ANOMALY   = 104.2209

EPHEMERIS_TYPE = 0
CLASSIFICATION_TYPE = U
NORAD_CAT_ID   = 66016
ELEMENT_SET_NO = 999
REV_AT_EPOCH   = 208
BSTAR          = -.87318077E-2
MEAN_MOTION_DOT = -.1585417E-1
MEAN_MOTION_DDOT = 0

CCSDS_OMM_VERS = 2.0
CREATION_DATE  = 
ORIGINATOR     = 

OBJECT_NAME    = STARLINK-35398
OBJECT_ID      = 2025-232N
CENTER_NAME    = EARTH
REF_FRAME      = TEME
TIME_SYSTEM    = UTC
MEAN_ELEMENT_THEORY = SGP/SGP4

EPOCH          = 2025-10-27T06:00:02.000160
MEAN_MOTION    = 15.81856045
ECCENTRICITY   = .00009859
INCLINATION    = 53.1552
RA_OF_ASC_NODE = 8.4816
ARG_OF_PERICENTER = 83.4792
MEAN_ANOMALY   = 101.0980

EPHEMERIS_TYPE = 0
CLASSIFICATION_TYPE = U
NORAD_CAT_ID   = 66017
ELEMENT_SET_NO = 999
REV_AT_EPOCH   = 200
BSTAR          = -.89436662E-2
MEAN_MOTION_DOT = -.1613971E-1
MEAN_MOTION_DDOT = 0

